0 COSMOS 1524
1 14613U 84001C   19248.86801255 -.00000008 +00000-0 +48323-4 0  9990
2 14613 074.0088 146.4128 0031384 108.5126 326.2196 12.56700529636205
0 COSMOS 1525
1 14614U 84001D   19248.90009831 -.00000008 +00000-0 +50586-4 0  9990
2 14614 074.0078 206.2259 0021688 172.9321 246.9394 12.54866528633804
0 COSMOS 1526
1 14615U 84001E   19248.53075514 -.00000021 +00000-0 -31159-4 0  9992
2 14615 074.0050 266.7854 0012793 245.2887 227.7721 12.53011509631354
0 COSMOS 1527
1 14616U 84001F   19248.72576913 -.00000014 +00000-0 +13214-4 0  9996
2 14616 074.0109 329.9367 0002424 277.1254 200.3971 12.51061622217738
0 COSMOS 1528
1 14617U 84001G   19248.90837222 -.00000005 +00000-0 +69375-4 0  9999
2 14617 074.0091 036.2349 0009961 181.4570 337.7906 12.48996534626235
0 COSMOS 1528
1 14617U 84001G   19249.86834030 -.00000002  00000-0  89435-4 0  9995
2 14617  74.0093  34.9599 0009948 180.0230 334.1751 12.48996547626549
0 COSMOS 1529
1 14618U 84001H   19248.93887223 -.00000010 +00000-0 +37250-4 0  9992
2 14618 074.0095 170.2223 0031915 344.2921 084.4685 12.44827870447405
0 COSMOS 1529
1 14618U 84001H   19249.19883163 -.00000010  00000-0  43867-4 0  9991
2 14618  74.0095 169.8797 0031917 343.9202 169.4311 12.44827880447675
0 SL-8 R/B
1 14619U 84001J   19249.43416140  .00000094  00000-0  96778-3 0  9995
2 14619  73.9955  68.5369 0127863 359.3361  55.2497 12.24843995595069
0 SL-8 R/B
1 14619U 84001J   19248.87428257 +.00000082 +00000-0 +86261-3 0  9997
2 14619 073.9955 069.2483 0127865 000.1386 106.4972 12.24843868594823
0 COSMOS 1531
1 14624U 84003A   19248.89522156 +.00000039 +00000-0 +26378-4 0  9996
2 14624 082.9350 166.1521 0020443 140.5226 287.8032 13.72168374784888
0 COSMOS 1531
1 14624U 84003A   19249.84120178  .00000031  00000-0  17190-4 0  9994
2 14624  82.9350 165.4540 0020493 138.0072 280.6517 13.72168408783568
0 SL-8 R/B
1 14625U 84003B   19249.17655203  .00000056  00000-0  43012-4 0  9992
2 14625  82.9257 125.7188 0021568 350.8158 120.0803 13.74364871787748
0 SL-8 R/B
1 14625U 84003B   19248.80407910 +.00000056 +00000-0 +43176-4 0  9992
2 14625 082.9258 125.9951 0021590 351.8626 077.1819 13.74364835787418
0 COSMOS 1275 DEB
1 14627U 81053JQ  19248.90469013 +.00000394 +00000-0 +25996-3 0  9993
2 14627 082.7855 208.3082 0044702 008.1102 057.8552 13.98958271814524
0 COSMOS 1275 DEB
1 14627U 81053JQ  19249.35092956  .00000415  00000-0  27455-3 0  9997
2 14627  82.7855 207.9564 0044673   6.8925 145.1558 13.98958765814917
0 SL-3 DEB
1 14631U 83075E   19249.79259494  .00000679  00000-0  23796-4 0  9995
2 14631  97.7099 148.5123 0006861 218.4691 141.6062 15.33184374964181
0 SL-3 DEB
1 14631U 83075E   19249.46626701  .00000663  00000-0  23315-4 0  9998
2 14631  97.7099 148.1721 0006833 219.7763 140.2978 15.33183611964133
0 SL-3 DEB
1 14631U 83075E   19248.87887610 +.00000669 +00000-0 +23487-4 0  9996
2 14631 097.7100 147.5597 0006792 222.1942 137.8778 15.33182518963742
0 SL-3 DEB
1 14631U 83075E   19249.20520443  .00000676  00000-0  23701-4 0  9999
2 14631  97.7099 147.8999 0006815 220.8387 139.2345 15.33183202964098
0 STTW-T1
1 14670U 84008A   19248.75550126 +.00000095 +00000-0 +58380-4 0  9995
2 14670 036.1226 025.7340 2989212 001.7819 359.1117 08.98585466160935
0 TITAN 34D TRANSTAGE R/B
1 14677U 84009C   19247.96874781 -.00000020 +00000-0 +00000-0 0  9992
2 14677 007.3529 348.9333 1016445 072.8699 297.9791 00.99447812001221
0 TITAN 34D TRANSTAGE R/B
1 14677U 84009C   19247.96877290 -.00000020  00000-0  00000+0 0  9999
2 14677   7.3529 348.9333 1016443  72.8702 297.9876  0.99447810  1226
0 COSMOS 1535
1 14679U 84010A   19249.85105389  .00000040  00000-0  25812-4 0  9990
2 14679  82.9611 185.2621 0043246  46.9549   5.0195 13.75117916754936
0 COSMOS 1535
1 14679U 84010A   19248.90687580 +.00000046 +00000-0 +32025-4 0  9993
2 14679 082.9610 185.9597 0043291 049.5188 011.0089 13.75117867754521
0 ATLAS H R/B
1 14691U 84012B   19248.80926804 +.00003435 +00000-0 +49266-3 0  9992
2 14691 063.2727 183.2955 0422713 116.7374 247.7629 14.31851215012260
0 ATLAS H R/B
1 14691U 84012B   19249.15846327  .00003265  00000-0  46947-3 0  9996
2 14691  63.2725 182.2503 0422784 116.7474 247.7399 14.31852207 12317
0 SL-14 R/B
1 14700U 84013B   19249.78431897  .00000055  00000-0  37336-5 0  9997
2 14700  82.5362 118.6091 0020002 168.3122 237.7849 14.83268214921307
0 OPS 4682 DEB
1 14716U 65027P   19248.15059331 -.00000511 +00000-0 -17583-2 0  9995
2 14716 090.2941 315.0683 0028328 014.7452 013.9106 12.98436661117913
0 OPS 4682 DEB
1 14717U 65027Q   19248.07583958 -.00000277 +00000-0 -99485-3 0  9995
2 14717 090.3014 288.7061 0033305 114.2776 307.3174 12.96393533795070
0 OPS 4682 DEB
1 14717U 65027Q   19249.15732841 -.00000324  00000-0 -11564-2 0  9996
2 14717  90.3012 288.7361 0033287 111.6340 314.4425 12.96393008795477
0 JD 1
1 14728U 84012C   19249.32841619  .00000913  00000-0  88337-4 0  9992
2 14728  63.2927 202.7236 0920676  83.5408 286.9475 13.50895842  7084
0 JD 1
1 14728U 84012C   19248.44011978 +.00001100 +00000-0 +10315-3 0  9990
2 14728 063.2913 205.0732 0920688 083.5207 286.9667 13.50894612006969
0 JD 2
1 14729U 84012D   19248.39585819 +.00000878 +00000-0 +85662-4 0  9994
2 14729 063.2965 205.8675 0919421 083.0605 287.3986 13.51120148006956
0 JD 2
1 14729U 84012D   19249.13598064  .00000808  00000-0  80119-4 0  9998
2 14729  63.2967 203.9079 0919421  83.0739 287.3857 13.51121545  7054
0 COSMOS 1317 DEB
1 14736U 81108G   19249.40656260  .00000085  00000-0  00000+0 0  9995
2 14736  71.5359 211.9945 4935638  33.6851 107.1732  2.00240395183725
0 COSMOS 1275 DEB
1 14739U 81053JU  19249.52141572  .00000508  00000-0  36709-3 0  9994
2 14739  83.0086 287.7329 0064390 179.7748 180.3460 13.93807192916544
0 COSMOS 1275 DEB
1 14740U 81053JV  19248.31117322 +.00000567 +00000-0 +51509-3 0  9998
2 14740 083.1392 347.4643 0108538 222.9519 192.0800 13.79291504775752
0 COSMOS 1275 DEB
1 14741U 81053JW  19248.60925559 +.00000327 +00000-0 +44272-3 0  9993
2 14741 082.9637 103.5258 0163071 322.8520 106.6090 13.51683075868135
0 TITAN 3C TRANSTAGE DEB
1 14756U 65108Y   19248.00175156 +.00003708 +00000-0 +30501-3 0  9992
2 14756 026.5215 156.3626 4656496 064.8837 335.8590 06.25200628486508
0 TITAN 3C TRANSTAGE DEB
1 14756U 65108Y   19249.76025802  .00003189  00000-0  26015-3 0  9996
2 14756  26.5218 153.8929 4656682  69.0199 333.8100  6.25212397486617
0 SL-8 R/B
1 14760U 84019B   19249.84850791 -.00000077  00000-0 -17518-4 0  9999
2 14760  74.0406  72.8293 0026981  93.4659 266.9580 14.35868766860075
0 SL-8 R/B
1 14760U 84019B   19248.87309597 -.00000070 +00000-0 -15209-4 0  9992
2 14760 074.0406 074.6190 0026977 095.5899 264.8332 14.35868895859720
0 LANDSAT 5
1 14780U 84021A   19248.87167844 +.00000265 +00000-0 +30441-4 0  9993
2 14780 098.1339 031.1127 0090711 023.0828 337.4425 14.91934247421190
0 LANDSAT 5
1 14780U 84021A   19249.00581331  .00000267  00000-0  30673-4 0  9999
2 14780  98.1339  31.2511 0090704  22.6430 337.8750 14.91934307896754
0 OSCAR 11 (UoSAT 2)
1 14781U 84021B   19249.64972689  .00000055  00000-0  12884-4 0  9999
2 14781  97.6078 270.5709 0009826  62.3611 297.8600 14.83104166910617
0 OSCAR 11 (UoSAT 2)
1 14781U 84021B   19248.84011548 +.00000060 +00000-0 +13434-4 0  9996
2 14781 097.6079 269.7999 0009866 064.6366 295.5869 14.83103985889496
0 JD 3
1 14795U 84012F   19248.38338048 +.00001723 +00000-0 +12675-3 0  9999
2 14795 063.2880 201.8272 0936133 078.4112 292.0355 13.52476103016257
0 JD 3
1 14795U 84012F   19249.34457622  .00001450  00000-0  10894-3 0  9994
2 14795  63.2876 199.2738 0936118  78.4351 292.0138 13.52478113 16383
0 SL-6 R/B(2)
1 14796U 84024D   19248.72613795 +.00000346 +00000-0 +00000-0 0  9992
2 14796 070.9195 194.4966 5138430 045.9694 082.4181 02.02870010262868
0 COSMOS 886 DEB
1 14799U 76126BR  19248.32158787 +.00000084 +00000-0 +84837-3 0  9992
2 14799 065.8079 202.5874 0883683 163.9605 350.0951 11.69028744530510
0 COSMOS 886 DEB
1 14799U 76126BR  19249.50973562  .00000040  00000-0  56041-3 0  9997
2 14799  65.8081 200.5438 0883629 163.5549 310.4194 11.69028611530972
0 COSMOS 886 DEB
1 14800U 76126BS  19249.24631698  .00000835  00000-0  12556-1 0  9995
2 14800  65.7521 158.5708 0622756 150.5343  10.7111 11.49258088542361
0 SL-8 DEB *
1 14801U 75112D   19249.86174146  .00000192  00000-0  50817-4 0  9999
2 14801  74.0625 139.3171 0007266 287.4405 191.7328 14.55297847127515
0 SL-8 DEB *
1 14802U 77059C   19249.84538256  .00000197  00000-0  45102-4 0  9992
2 14802  74.0572 302.8357 0012277 337.2580 144.4542 14.62316660  4347
0 SL-8 DEB *
1 14802U 77059C   19248.61325505 +.00000211 +00000-0 +47757-4 0  9992
2 14802 074.0575 305.1924 0012214 339.8772 138.1746 14.62316107003877
0 SL-8 DEB *
1 14803U 78019D   19249.38513977  .00000949  00000-0  76655-4 0  9994
2 14803  74.0228 232.3201 0004313 253.8768 256.5382 15.01513690 64680
0 SL-8 DEB
1 14805U 79078C   19249.48149344  .00000480  00000-0  61424-4 0  9994
2 14805  74.0575  60.7575 0002952 225.4579 166.1251 14.84394947956386
0 SL-8 DEB
1 14805U 79078C   19248.54234309 +.00000497 +00000-0 +63435-4 0  9998
2 14805 074.0574 062.6178 0002993 226.5981 188.4470 14.84393960955966
0 SL-8 DEB *
1 14806U 79078D   19248.62517831 +.00000166 +00000-0 +48550-4 0  9996
2 14806 074.0330 086.3041 0004025 192.3170 223.2692 14.51333098179835
0 SL-8 DEB *
1 14806U 79078D   19249.74155409  .00000168  00000-0  49113-4 0  9997
2 14806  74.0330  84.2028 0003984 190.0346 296.0130 14.51333517180316
0 SL-8 DEB *
1 14808U 80056C   19248.93962603 +.00000172 +00000-0 +59017-4 0  9998
2 14808 074.0406 200.0160 0013805 051.1812 004.0567 14.43080717871179
